{"fetched_at":"2026-07-23T17:55:34.243Z","source":"https://celestrak.org/NORAD/elements/gp.php?NAME=HULIANWANG&FORMAT=JSON","constellation":"guowang","records":[{"OBJECT_NAME":"HULIANWANG DIGUI-76","OBJECT_ID":"2025-187D","EPOCH":"2026-07-23T04:09:56.404800","CLASSIFICATION_TYPE":"U","MEAN_MOTION":13.29324129,"ECCENTRICITY":0.00001143,"INCLINATION":50.0015,"RA_OF_ASC_NODE":76.9287,"ARG_OF_PERICENTER":86.3721,"MEAN_ANOMALY":273.7164,"EPHEMERIS_TYPE":0,"NORAD_CAT_ID":65308,"ELEMENT_SET_NO":999,"REV_AT_EPOCH":4448,"BSTAR":0.000053159216,"MEAN_MOTION_DOT":-9.9e-7,"MEAN_MOTION_DDOT":0},{"OBJECT_NAME":"HULIANWANG DIGUI-77","OBJECT_ID":"2025-187E","EPOCH":"2026-07-23T03:57:45.859968","CLASSIFICATION_TYPE":"U","MEAN_MOTION":13.29324074,"ECCENTRICITY":0.00001621,"INCLINATION":50.0049,"RA_OF_ASC_NODE":76.9747,"ARG_OF_PERICENTER":178.7009,"MEAN_ANOMALY":181.3864,"EPHEMERIS_TYPE":0,"NORAD_CAT_ID":65309,"ELEMENT_SET_NO":999,"REV_AT_EPOCH":4448,"BSTAR":0.000071201714,"MEAN_MOTION_DOT":-9.1e-7,"MEAN_MOTION_DDOT":0},{"OBJECT_NAME":"HULIANWANG DIGUI-78","OBJECT_ID":"2025-187F","EPOCH":"2026-07-23T04:46:03.210528","CLASSIFICATION_TYPE":"U","MEAN_MOTION":13.29323111,"ECCENTRICITY":0.00000743,"INCLINATION":50.0114,"RA_OF_ASC_NODE":76.6621,"ARG_OF_PERICENTER":53.4703,"MEAN_ANOMALY":306.6176,"EPHEMERIS_TYPE":0,"NORAD_CAT_ID":65310,"ELEMENT_SET_NO":999,"REV_AT_EPOCH":4449,"BSTAR":0.000035798659,"MEAN_MOTION_DOT":-0.00000107,"MEAN_MOTION_DDOT":0},{"OBJECT_NAME":"HULIANWANG DIGUI-79","OBJECT_ID":"2025-187G","EPOCH":"2026-07-23T04:21:54.265248","CLASSIFICATION_TYPE":"U","MEAN_MOTION":13.29319865,"ECCENTRICITY":0.00000869,"INCLINATION":50.0044,"RA_OF_ASC_NODE":77.0487,"ARG_OF_PERICENTER":15.7287,"MEAN_ANOMALY":344.3588,"EPHEMERIS_TYPE":0,"NORAD_CAT_ID":65311,"ELEMENT_SET_NO":999,"REV_AT_EPOCH":4448,"BSTAR":0.000040149012,"MEAN_MOTION_DOT":-0.00000105,"MEAN_MOTION_DDOT":0},{"OBJECT_NAME":"HULIANWANG DIGUI-80","OBJECT_ID":"2025-187H","EPOCH":"2026-07-23T03:45:46.059840","CLASSIFICATION_TYPE":"U","MEAN_MOTION":13.29323186,"ECCENTRICITY":0.00001483,"INCLINATION":50.0034,"RA_OF_ASC_NODE":76.8945,"ARG_OF_PERICENTER":179.3955,"MEAN_ANOMALY":180.6918,"EPHEMERIS_TYPE":0,"NORAD_CAT_ID":65312,"ELEMENT_SET_NO":999,"REV_AT_EPOCH":4448,"BSTAR":0.000056991724,"MEAN_MOTION_DOT":-9.8e-7,"MEAN_MOTION_DDOT":0},{"OBJECT_NAME":"HULIANWANG DIGUI-81","OBJECT_ID":"2025-187J","EPOCH":"2026-07-23T05:10:06.516480","CLASSIFICATION_TYPE":"U","MEAN_MOTION":13.29320053,"ECCENTRICITY":0.00000526,"INCLINATION":50.0074,"RA_OF_ASC_NODE":76.6438,"ARG_OF_PERICENTER":36.3348,"MEAN_ANOMALY":323.7528,"EPHEMERIS_TYPE":0,"NORAD_CAT_ID":65313,"ELEMENT_SET_NO":999,"REV_AT_EPOCH":4450,"BSTAR":0.000050749414,"MEAN_MOTION_DOT":-0.000001,"MEAN_MOTION_DDOT":0},{"OBJECT_NAME":"HULIANWANG DIGUI-82","OBJECT_ID":"2025-220A","EPOCH":"2026-07-23T06:38:00.017376","CLASSIFICATION_TYPE":"U","MEAN_MOTION":13.24409789,"ECCENTRICITY":0.00022793,"INCLINATION":86.4953,"RA_OF_ASC_NODE":31.6682,"ARG_OF_PERICENTER":97.4271,"MEAN_ANOMALY":262.7122,"EPHEMERIS_TYPE":0,"NORAD_CAT_ID":65817,"ELEMENT_SET_NO":999,"REV_AT_EPOCH":3969,"BSTAR":0.000015240002,"MEAN_MOTION_DOT":2.1e-7,"MEAN_MOTION_DDOT":0},{"OBJECT_NAME":"HULIANWANG DIGUI-83","OBJECT_ID":"2025-220B","EPOCH":"2026-07-23T01:00:50.711040","CLASSIFICATION_TYPE":"U","MEAN_MOTION":13.24410117,"ECCENTRICITY":0.00022756,"INCLINATION":86.4976,"RA_OF_ASC_NODE":31.8081,"ARG_OF_PERICENTER":96.4598,"MEAN_ANOMALY":263.6795,"EPHEMERIS_TYPE":0,"NORAD_CAT_ID":65818,"ELEMENT_SET_NO":999,"REV_AT_EPOCH":3966,"BSTAR":0.000026752929,"MEAN_MOTION_DOT":2.6e-7,"MEAN_MOTION_DDOT":0},{"OBJECT_NAME":"HULIANWANG DIGUI-84","OBJECT_ID":"2025-220C","EPOCH":"2026-07-23T00:49:54.830496","CLASSIFICATION_TYPE":"U","MEAN_MOTION":13.24409922,"ECCENTRICITY":0.0002236,"INCLINATION":86.4913,"RA_OF_ASC_NODE":31.6173,"ARG_OF_PERICENTER":97.411,"MEAN_ANOMALY":262.7278,"EPHEMERIS_TYPE":0,"NORAD_CAT_ID":65819,"ELEMENT_SET_NO":999,"REV_AT_EPOCH":3966,"BSTAR":0.000042952931,"MEAN_MOTION_DOT":3.3e-7,"MEAN_MOTION_DDOT":0},{"OBJECT_NAME":"HULIANWANG DIGUI-85","OBJECT_ID":"2025-220D","EPOCH":"2026-07-23T06:05:24.541728","CLASSIFICATION_TYPE":"U","MEAN_MOTION":13.24408842,"ECCENTRICITY":0.00022342,"INCLINATION":86.4974,"RA_OF_ASC_NODE":31.7193,"ARG_OF_PERICENTER":100.0541,"MEAN_ANOMALY":260.0845,"EPHEMERIS_TYPE":0,"NORAD_CAT_ID":65820,"ELEMENT_SET_NO":999,"REV_AT_EPOCH":3969,"BSTAR":0.00007699978,"MEAN_MOTION_DOT":4.8e-7,"MEAN_MOTION_DDOT":0},{"OBJECT_NAME":"HULIANWANG DIGUI-86","OBJECT_ID":"2025-220E","EPOCH":"2026-07-23T00:28:20.569728","CLASSIFICATION_TYPE":"U","MEAN_MOTION":13.24411612,"ECCENTRICITY":0.00020084,"INCLINATION":86.4953,"RA_OF_ASC_NODE":31.7285,"ARG_OF_PERICENTER":84.3685,"MEAN_ANOMALY":275.7678,"EPHEMERIS_TYPE":0,"NORAD_CAT_ID":65821,"ELEMENT_SET_NO":999,"REV_AT_EPOCH":3966,"BSTAR":0.000079990807,"MEAN_MOTION_DOT":4.9e-7,"MEAN_MOTION_DDOT":0},{"OBJECT_NAME":"HULIANWANG DIGUI-87","OBJECT_ID":"2025-231A","EPOCH":"2026-07-22T22:48:44.482176","CLASSIFICATION_TYPE":"U","MEAN_MOTION":13.29328332,"ECCENTRICITY":0.00004282,"INCLINATION":50.0011,"RA_OF_ASC_NODE":47.5635,"ARG_OF_PERICENTER":20.9669,"MEAN_ANOMALY":339.122,"EPHEMERIS_TYPE":0,"NORAD_CAT_ID":65995,"ELEMENT_SET_NO":999,"REV_AT_EPOCH":3764,"BSTAR":0.000014032497,"MEAN_MOTION_DOT":-0.00000118,"MEAN_MOTION_DDOT":0},{"OBJECT_NAME":"HULIANWANG DIGUI-88","OBJECT_ID":"2025-231B","EPOCH":"2026-07-22T13:59:32.742240","CLASSIFICATION_TYPE":"U","MEAN_MOTION":13.29323992,"ECCENTRICITY":0.00004483,"INCLINATION":49.9996,"RA_OF_ASC_NODE":48.9279,"ARG_OF_PERICENTER":1.0988,"MEAN_ANOMALY":358.9885,"EPHEMERIS_TYPE":0,"NORAD_CAT_ID":65996,"ELEMENT_SET_NO":999,"REV_AT_EPOCH":3759,"BSTAR":0.000015597029,"MEAN_MOTION_DOT":-0.00000117,"MEAN_MOTION_DDOT":0},{"OBJECT_NAME":"HULIANWANG DIGUI-89","OBJECT_ID":"2025-231C","EPOCH":"2026-07-21T14:08:02.192928","CLASSIFICATION_TYPE":"U","MEAN_MOTION":13.29328227,"ECCENTRICITY":0.000049,"INCLINATION":49.9974,"RA_OF_ASC_NODE":52.2977,"ARG_OF_PERICENTER":5.0591,"MEAN_ANOMALY":355.0285,"EPHEMERIS_TYPE":0,"NORAD_CAT_ID":65997,"ELEMENT_SET_NO":999,"REV_AT_EPOCH":3746,"BSTAR":0.000017773219,"MEAN_MOTION_DOT":-0.00000116,"MEAN_MOTION_DDOT":0},{"OBJECT_NAME":"HULIANWANG DIGUI-90","OBJECT_ID":"2025-231D","EPOCH":"2026-07-23T00:13:01.692768","CLASSIFICATION_TYPE":"U","MEAN_MOTION":13.29326646,"ECCENTRICITY":0.0000491,"INCLINATION":50.0003,"RA_OF_ASC_NODE":47.1949,"ARG_OF_PERICENTER":4.1305,"MEAN_ANOMALY":355.9571,"EPHEMERIS_TYPE":0,"NORAD_CAT_ID":65998,"ELEMENT_SET_NO":999,"REV_AT_EPOCH":3765,"BSTAR":0.000039638815,"MEAN_MOTION_DOT":-0.00000106,"MEAN_MOTION_DDOT":0},{"OBJECT_NAME":"HULIANWANG DIGUI-91","OBJECT_ID":"2025-231E","EPOCH":"2026-07-23T00:00:59.364576","CLASSIFICATION_TYPE":"U","MEAN_MOTION":13.29327267,"ECCENTRICITY":0.00004749,"INCLINATION":50.0021,"RA_OF_ASC_NODE":47.1949,"ARG_OF_PERICENTER":5.5636,"MEAN_ANOMALY":354.5241,"EPHEMERIS_TYPE":0,"NORAD_CAT_ID":65999,"ELEMENT_SET_NO":999,"REV_AT_EPOCH":3765,"BSTAR":0.00003622194,"MEAN_MOTION_DOT":-0.00000107,"MEAN_MOTION_DDOT":0}]}
