HULIANWANG DIGUI-76     
1 65308U 25187D   26204.17356950 -.00000099  00000+0  53159-4 0  9990
2 65308  50.0015  76.9287 0000114  86.3721 273.7164 13.29324129 44483
HULIANWANG DIGUI-77     
1 65309U 25187E   26204.16511412 -.00000091  00000+0  71202-4 0  9997
2 65309  50.0049  76.9747 0000162 178.7009 181.3864 13.29324074 44480
HULIANWANG DIGUI-78     
1 65310U 25187F   26204.19864827 -.00000107  00000+0  35799-4 0  9992
2 65310  50.0114  76.6621 0000074  53.4703 306.6176 13.29323111 44495
HULIANWANG DIGUI-79     
1 65311U 25187G   26204.18187807 -.00000105  00000+0  40149-4 0  9991
2 65311  50.0044  77.0487 0000086  15.7287 344.3588 13.29319865 44480
HULIANWANG DIGUI-80     
1 65312U 25187H   26204.15678310 -.00000098  00000+0  56992-4 0  9997
2 65312  50.0034  76.8945 0000148 179.3955 180.6918 13.29323186 44483
HULIANWANG DIGUI-81     
1 65313U 25187J   26204.21535320 -.00000100  00000+0  50749-4 0  9996
2 65313  50.0074  76.6438 0000052  36.3348 323.7528 13.29320053 44505
HULIANWANG DIGUI-82     
1 65817U 25220A   26204.27638909  .00000021  00000+0  15240-4 0  9994
2 65817  86.4953  31.6682 0002279  97.4271 262.7122 13.24409789 39696
HULIANWANG DIGUI-83     
1 65818U 25220B   26204.04225360  .00000026  00000+0  26753-4 0  9999
2 65818  86.4976  31.8081 0002275  96.4598 263.6795 13.24410117 39664
HULIANWANG DIGUI-84     
1 65819U 25220C   26204.03466239  .00000033  00000+0  42953-4 0  9999
2 65819  86.4913  31.6173 0002236  97.4110 262.7278 13.24409922 39662
HULIANWANG DIGUI-85     
1 65820U 25220D   26204.25375627  .00000048  00000+0  77000-4 0  9992
2 65820  86.4974  31.7193 0002234 100.0541 260.0845 13.24408842 39695
HULIANWANG DIGUI-86     
1 65821U 25220E   26204.01968252  .00000049  00000+0  79991-4 0  9991
2 65821  86.4953  31.7285 0002008  84.3685 275.7678 13.24411612 39660
HULIANWANG DIGUI-87     
1 65995U 25231A   26203.95051484 -.00000118  00000+0  14032-4 0  9990
2 65995  50.0011  47.5635 0000428  20.9669 339.1220 13.29328332 37645
HULIANWANG DIGUI-88     
1 65996U 25231B   26203.58301785 -.00000117  00000+0  15597-4 0  9998
2 65996  49.9996  48.9279 0000448   1.0988 358.9885 13.29323992 37597
HULIANWANG DIGUI-89     
1 65997U 25231C   26202.58891427 -.00000116  00000+0  17773-4 0  9992
2 65997  49.9974  52.2977 0000490   5.0591 355.0285 13.29328227 37462
HULIANWANG DIGUI-90     
1 65998U 25231D   26204.00904737 -.00000106  00000+0  39639-4 0  9995
2 65998  50.0003  47.1949 0000491   4.1305 355.9571 13.29326646 37656
HULIANWANG DIGUI-91     
1 65999U 25231E   26204.00068709 -.00000107  00000+0  36222-4 0  9992
2 65999  50.0021  47.1949 0000474   5.5636 354.5241 13.29327267 37659
